TRANSPORTER-17 OBJECT BE
1 69921U 26156BE  26203.16448477  .00002543  00000+0  25680-3 0  9998
2 69921  97.7548 103.3836 0008418 104.4498 255.7656 14.91910994  2212
TRANSPORTER-17 OBJECT BF
1 69922U 26156BF  26202.89544783  .00000333  00000+0  38327-4 0  9993
2 69922  97.7519 103.1141 0009130 103.3458 256.8780 14.91967014  2174
TRANSPORTER-17 OBJECT BG
1 69923U 26156BG  26202.69415370  .00000961  00000+0  10034-3 0  9992
2 69923  97.7513 102.9155 0009228 103.0744 257.1506 14.91983029  2145
TRANSPORTER-17 OBJECT BH
1 69924U 26156BH  26202.89400032  .00000796  00000+0  83779-4 0  9997
2 69924  97.7521 103.1171 0009838 102.4802 257.7518 14.92119590  2178
TRANSPORTER-17 OBJECT BJ
1 69925U 26156BJ  26203.16195321  .00004181  00000+0  41553-3 0  9996
2 69925  97.7509 103.3794 0010211  99.9034 260.3339 14.92191680  2218
TRANSPORTER-17 OBJECT BK
1 69926U 26156BK  26202.96020333  .00003416  00000+0  34029-3 0  9994
2 69926  97.7577 103.1943 0009904 109.9577 250.2710 14.92229611  2182
TRANSPORTER-17 OBJECT BL
1 69927U 26156BL  26202.82613135  .00000815  00000+0  85445-4 0  9997
2 69927  97.7537 103.0546 0009821 108.2983 251.9305 14.92202988  1992
TRANSPORTER-17 OBJECT BM
1 69928U 26156BM  26202.95996049  .00003661  00000+0  36396-3 0  9992
2 69928  97.7571 103.1926 0010315 106.7134 253.5218 14.92258264  2186
TRANSPORTER-17 OBJECT BN
1 69929U 26156BN  26203.16029228  .00002743  00000+0  27354-3 0  9997
2 69929  97.7545 103.3876 0010612 104.8746 255.3649 14.92342873  2214
TRANSPORTER-17 OBJECT BP
1 69930U 26156BP  26202.89182178  .00003578  00000+0  35486-3 0  9994
2 69930  97.7562 103.1270 0010578 109.1594 251.0772 14.92368345  2178
TRANSPORTER-17 OBJECT BQ
1 69931U 26156BQ  26202.82477899  .00000835  00000+0  87129-4 0  9990
2 69931  97.7518 103.0535 0010836 102.6463 257.5968 14.92342652  2163
TRANSPORTER-17 OBJECT BR
1 69932U 26156BR  26203.15996864  .00000534  00000+0  57690-4 0  9992
2 69932  97.7469 103.3748 0011071  99.5457 260.7014 14.92348418  2217
TRANSPORTER-17 OBJECT BS
1 69933U 26156BS  26203.15956046  .00003282  00000+0  32556-3 0  9997
2 69933  97.7548 103.3889 0011042 104.1179 256.1268 14.92413352  2214
TRANSPORTER-17 OBJECT BT
1 69934U 26156BT  26202.89113078  .00003527  00000+0  34920-3 0  9997
2 69934  97.7539 103.1241 0011053 107.5475 252.6953 14.92438980  2174
TRANSPORTER-17 OBJECT BU
1 69935U 26156BU  26202.82351136  .00002222  00000+0  22175-3 0  9990
2 69935  97.7480 103.0481 0011547 103.2269 257.0239 14.92488992  2160
TRANSPORTER-17 OBJECT BV
1 69936U 26156BV  26202.95766052  .00001376  00000+0  13945-3 0  9996
2 69936  97.7480 103.1800 0011494 102.8098 257.4406 14.92473506  2180
TRANSPORTER-17 OBJECT BW
1 69937U 26156BW  26203.29054340  .00002076  00000+0  20637-3 0  9999
2 69937  97.7511 103.5191 0012425 101.5135 258.7480 14.92717396  2236
TRANSPORTER-17 OBJECT BX
1 69938U 26156BX  26202.62228803  .00002506  00000+0  24929-3 0  9999
2 69938  97.7494 102.8538 0011594 100.6848 259.5678 14.92503060  2139
TRANSPORTER-17 OBJECT BY
1 69939U 26156BY  26202.95728992  .00001022  00000+0  10493-3 0  9993
2 69939  97.7572 103.1965 0011168 110.7113 249.5304 14.92507213  2183
TRANSPORTER-17 OBJECT BZ
1 69940U 26156BZ  26202.95638777  .00000672  00000+0  70745-4 0  9993
2 69940  97.7556 103.1942 0011888 105.3258 254.9276 14.92597036  2181
TRANSPORTER-17 OBJECT CA
1 69941U 26156CA  26203.16207963  .00004094  00000+0  40730-3 0  9999
2 69941  97.7507 103.3793 0010124  99.8771 260.3592 14.92167199  2212
TRANSPORTER-17 OBJECT CB
1 69942U 26156CB  26203.16218730  .00003842  00000+0  38274-3 0  9994
2 69942  97.7505 103.3792 0009976  99.8955 260.3391 14.92145576  2219
STARLINK-37886          
1 69943U 26157A   26203.25856264  .00425599  00000+0  20335-2 0  9991
2 69943  53.1590 260.4319 0000596  14.9457 345.1583 15.81103207  2055
STARLINK-37937          
1 69944U 26157B   26203.00002315 -.00010235  00000+0 -48420-4 0  9991
2 69944  53.1589 261.7087 0001072 101.6828 235.2836 15.80853711  3250
STARLINK-37903          
1 69945U 26157C   26203.25617348  .00410042  00000+0  19892-2 0  9994
2 69945  53.1588 260.4155 0001962  58.5697 301.5517 15.80815971  2050
STARLINK-37905          
1 69946U 26157D   26203.25278446  .00169357  00000+0  84291-3 0  9993
2 69946  53.1589 260.3929 0001596 124.7745 235.3429 15.80922994  2053
STARLINK-37904          
1 69947U 26157E   26203.25210920  .00283032  00000+0  13801-2 0  9992
2 69947  53.1596 260.3884 0003437  30.0237 330.0982 15.81041998  2057
STARLINK-37891          
1 69948U 26157F   26203.00002315 -.00020611  00000+0 -10123-3 0  9992
2 69948  53.1587 261.6421 0001156  94.9426 274.0286 15.80851699  3257
STARLINK-37923          
1 69949U 26157G   26203.00002315  .00052136  00000+0  26670-3 0  9992
2 69949  53.1589 261.6062 0001063 101.0289 285.0518 15.80822599  3252
