OBJECT_NAME,OBJECT_ID,EPOCH,MEAN_MOTION,ECCENTRICITY,INCLINATION,RA_OF_ASC_NODE,ARG_OF_PERICENTER,MEAN_ANOMALY,EPHEMERIS_TYPE,CLASSIFICATION_TYPE,NORAD_CAT_ID,ELEMENT_SET_NO,REV_AT_EPOCH,BSTAR,MEAN_MOTION_DOT,MEAN_MOTION_DDOT
TRANSPORTER-17 OBJECT BE,2026-156BE,2026-07-22T03:56:51.484128,14.91910994,.00084182,97.7548,103.3836,104.4498,255.7656,0,U,69921,999,221,.25680417E-3,.2543E-4,0
TRANSPORTER-17 OBJECT BF,2026-156BF,2026-07-21T21:29:26.692512,14.91967014,.00091307,97.7519,103.1141,103.3458,256.8780,0,U,69922,999,217,.38326765E-4,.333E-5,0
TRANSPORTER-17 OBJECT BG,2026-156BG,2026-07-21T16:39:34.879680,14.91983029,.00092288,97.7513,102.9155,103.0744,257.1506,0,U,69923,999,214,.1003443E-3,.961E-5,0
TRANSPORTER-17 OBJECT BH,2026-156BH,2026-07-21T21:27:21.627648,14.92119590,.0009838,97.7521,103.1171,102.4802,257.7518,0,U,69924,999,217,.83779169E-4,.796E-5,0
TRANSPORTER-17 OBJECT BJ,2026-156BJ,2026-07-22T03:53:12.757344,14.92191680,.00102112,97.7509,103.3794,99.9034,260.3339,0,U,69925,999,221,.41552674E-3,.4181E-4,0
TRANSPORTER-17 OBJECT BK,2026-156BK,2026-07-21T23:02:41.567712,14.92229611,.00099041,97.7577,103.1943,109.9577,250.2710,0,U,69926,999,218,.34029185E-3,.3416E-4,0
TRANSPORTER-17 OBJECT BL,2026-156BL,2026-07-21T19:49:37.748640,14.92202988,.00098214,97.7537,103.0546,108.2983,251.9305,0,U,69927,999,199,.85444537E-4,.815E-5,0
TRANSPORTER-17 OBJECT BM,2026-156BM,2026-07-21T23:02:20.586336,14.92258264,.00103158,97.7571,103.1926,106.7134,253.5218,0,U,69928,999,218,.36395949E-3,.3661E-4,0
TRANSPORTER-17 OBJECT BN,2026-156BN,2026-07-22T03:50:49.252992,14.92342873,.00106123,97.7545,103.3876,104.8746,255.3649,0,U,69929,999,221,.27354388E-3,.2743E-4,0
TRANSPORTER-17 OBJECT BP,2026-156BP,2026-07-21T21:24:13.401792,14.92368345,.00105784,97.7562,103.1270,109.1594,251.0772,0,U,69930,999,217,.35486309E-3,.3578E-4,0
TRANSPORTER-17 OBJECT BQ,2026-156BQ,2026-07-21T19:47:40.904736,14.92342652,.00108363,97.7518,103.0535,102.6463,257.5968,0,U,69931,999,216,.87128707E-4,.835E-5,0
TRANSPORTER-17 OBJECT BR,2026-156BR,2026-07-22T03:50:21.290496,14.92348418,.00110711,97.7469,103.3748,99.5457,260.7014,0,U,69932,999,221,.57689522E-4,.534E-5,0
TRANSPORTER-17 OBJECT BS,2026-156BS,2026-07-22T03:49:46.023744,14.92413352,.00110427,97.7548,103.3889,104.1179,256.1268,0,U,69933,999,221,.32556105E-3,.3282E-4,0
TRANSPORTER-17 OBJECT BT,2026-156BT,2026-07-21T21:23:13.699392,14.92438980,.00110533,97.7539,103.1241,107.5475,252.6953,0,U,69934,999,217,.34919897E-3,.3527E-4,0
TRANSPORTER-17 OBJECT BU,2026-156BU,2026-07-21T19:45:51.381504,14.92488992,.00115475,97.7480,103.0481,103.2269,257.0239,0,U,69935,999,216,.22174812E-3,.2222E-4,0
TRANSPORTER-17 OBJECT BV,2026-156BV,2026-07-21T22:59:01.868928,14.92473506,.00114943,97.7480,103.1800,102.8098,257.4406,0,U,69936,999,218,.13944889E-3,.1376E-4,0
TRANSPORTER-17 OBJECT BW,2026-156BW,2026-07-22T06:58:22.949760,14.92717396,.00124252,97.7511,103.5191,101.5135,258.7480,0,U,69937,999,223,.20636622E-3,.2076E-4,0
TRANSPORTER-17 OBJECT BX,2026-156BX,2026-07-21T14:56:05.685792,14.92503060,.00115944,97.7494,102.8538,100.6848,259.5678,0,U,69938,999,213,.24928598E-3,.2506E-4,0
TRANSPORTER-17 OBJECT BY,2026-156BY,2026-07-21T22:58:29.849088,14.92507213,.00111686,97.7572,103.1965,110.7113,249.5304,0,U,69939,999,218,.10493229E-3,.1022E-4,0
TRANSPORTER-17 OBJECT BZ,2026-156BZ,2026-07-21T22:57:11.903328,14.92597036,.00118886,97.7556,103.1942,105.3258,254.9276,0,U,69940,999,218,.70745322E-4,.672E-5,0
TRANSPORTER-17 OBJECT CA,2026-156CA,2026-07-22T03:53:23.680032,14.92167199,.00101248,97.7507,103.3793,99.8771,260.3592,0,U,69941,999,221,.40729784E-3,.4094E-4,0
TRANSPORTER-17 OBJECT CB,2026-156CB,2026-07-22T03:53:32.982720,14.92145576,.00099763,97.7505,103.3792,99.8955,260.3391,0,U,69942,999,221,.38274473E-3,.3842E-4,0
STARLINK-37886,2026-157A,2026-07-22T06:12:19.812096,15.81103207,.00005963,53.1590,260.4319,14.9457,345.1583,0,U,69943,999,205,.20335427E-2,.425599E-2,0
STARLINK-37937,2026-157B,2026-07-22T00:00:02.000160,15.80853711,.00010725,53.1589,261.7087,101.6828,235.2836,0,U,69944,999,325,-.4842039E-4,-.10235E-3,0
STARLINK-37903,2026-157C,2026-07-22T06:08:53.388672,15.80815971,.00019622,53.1588,260.4155,58.5697,301.5517,0,U,69945,999,205,.19891752E-2,.410042E-2,0
STARLINK-37905,2026-157D,2026-07-22T06:04:00.577344,15.80922994,.00015967,53.1589,260.3929,124.7745,235.3429,0,U,69946,999,205,.84290746E-3,.169357E-2,0
STARLINK-37904,2026-157E,2026-07-22T06:03:02.234880,15.81041998,.00034375,53.1596,260.3884,30.0237,330.0982,0,U,69947,999,205,.13800699E-2,.283032E-2,0
STARLINK-37891,2026-157F,2026-07-22T00:00:02.000160,15.80851699,.00011561,53.1587,261.6421,94.9426,274.0286,0,U,69948,999,325,-.101231E-3,-.20611E-3,0
STARLINK-37923,2026-157G,2026-07-22T00:00:02.000160,15.80822599,.00010638,53.1589,261.6062,101.0289,285.0518,0,U,69949,999,325,.26670415E-3,.52136E-3,0
